{
    "links": {
        "self": "http://www.neowsapp.com/rest/v1/neo/3843924?api_key=iIulBulltgU6a56xZRHN4H3l9WmuAYTsLGpBGhQ2"
    },
    "id": "3843924",
    "neo_reference_id": "3843924",
    "name": "(2019 SB2)",
    "designation": "2019 SB2",
    "nasa_jpl_url": "http://ssd.jpl.nasa.gov/sbdb.cgi?sstr=3843924",
    "absolute_magnitude_h": 24.7,
    "estimated_diameter": {
        "kilometers": {
            "estimated_diameter_min": 0.0305179233,
            "estimated_diameter_max": 0.0682401509
        },
        "meters": {
            "estimated_diameter_min": 30.5179232594,
            "estimated_diameter_max": 68.2401509401
        },
        "miles": {
            "estimated_diameter_min": 0.0189629525,
            "estimated_diameter_max": 0.0424024508
        },
        "feet": {
            "estimated_diameter_min": 100.1244233463,
            "estimated_diameter_max": 223.8850168104
        }
    },
    "is_potentially_hazardous_asteroid": false,
    "close_approach_data": [
        {
            "close_approach_date": "2019-09-12",
            "close_approach_date_full": "2019-Sep-12 07:38",
            "epoch_date_close_approach": 1568273880000,
            "relative_velocity": {
                "kilometers_per_second": "7.3128428115",
                "kilometers_per_hour": "26326.2341213788",
                "miles_per_hour": "16358.0980850312"
            },
            "miss_distance": {
                "astronomical": "0.1336345061",
                "lunar": "51.9838228729",
                "kilometers": "19991437.471062007",
                "miles": "12422103.2239374166"
            },
            "orbiting_body": "Earth"
        }
    ],
    "orbital_data": {
        "orbit_id": "1",
        "orbit_determination_date": "2019-09-22 18:12:05",
        "first_observation_date": "2019-09-20",
        "last_observation_date": "2019-09-22",
        "data_arc_in_days": 2,
        "observations_used": 15,
        "orbit_uncertainty": "9",
        "minimum_orbit_intersection": ".128229",
        "jupiter_tisserand_invariant": "3.274",
        "epoch_osculation": "2458747.5",
        "eccentricity": ".5350835898493004",
        "semi_major_axis": "2.441516465708004",
        "inclination": "9.217418198141333",
        "ascending_node_longitude": "346.1187369332015",
        "orbital_period": "1393.43884481641",
        "perihelion_distance": "1.135101070560789",
        "perihelion_argument": "2.662855791299581",
        "aphelion_distance": "3.747931860855219",
        "perihelion_time": "2458740.492997650984",
        "mean_anomaly": "1.810284574044662",
        "mean_motion": ".2583536416680211",
        "equinox": "J2000",
        "orbit_class": {
            "orbit_class_type": "AMO",
            "orbit_class_description": "Near-Earth asteroid orbits similar to that of 1221 Amor",
            "orbit_class_range": "1.017 AU < q (perihelion) < 1.3 AU"
        }
    },
    "is_sentry_object": false
}